COSMOS 2251 DEB         
1 34907U 93036ADC 17344.96872863  .00000760  00000-0  22640-3 0  9992
2 34907  74.0221 206.4606 0022015 254.2658 170.1981 14.44707551453992
